NORAD_CAT_ID,OBJECT_NAME,OBJECT_TYPE,EPOCH,MEAN_MOTION,ECCENTRICITY,INCLINATION,RA_OF_ASC_NODE,ARG_OF_PERICENTER,MEAN_ANOMALY,BSTAR,MEAN_MOTION_DOT,MEAN_MOTION_DDOT,TLE_LINE0,TLE_LINE1,TLE_LINE2,SEMIMAJOR_AXIS,PERIOD,APOGEE,PERIGEE,DECAYED
49751.0,STARLINK-3229,PAYLOAD,2024-04-27 13:28:40,15.08843953,0.0001318,53.2173,326.7477,69.6233,290.49,7.13e-05,8.47e-06,0.0,0 STARLINK-3229,1 49751U 21115AD  24118.56158351  .00000847  00000-0  71300-4 0  9990,2 49751  53.2173 326.7477 0001318  69.6233 290.4900 15.08843953133824,6917.868,95.437,540.645,538.822,0.0
49751.0,STARLINK-3229,PAYLOAD,2024-04-27 21:25:36,15.08846018,0.000123,53.2183,325.2623,83.1185,276.9947,0.00013079,1.795e-05,0.0,0 STARLINK-3229,1 49751U 21115AD  24118.89278219  .00001795  00000-0  13079-3 0  9993,2 49751  53.2183 325.2623 0001230  83.1185 276.9947 15.08846018132769,6917.862,95.437,540.578,538.876,0.0
49751.0,STARLINK-3229,PAYLOAD,2024-04-28 13:19:28,15.08832267,0.0001385,53.2195,322.2874,88.3947,271.7204,-8.1584e-05,-1.586e-05,0.0,0 STARLINK-3229,1 49751U 21115AD  24119.55519061 -.00001586  00000-0 -81584-4 0  9997,2 49751  53.2195 322.2874 0001385  88.3947 271.7204 15.08832267133975,6917.904,95.438,540.727,538.811,0.0
49751.0,STARLINK-3229,PAYLOAD,2024-04-28 19:41:01,15.08831361,0.0001032,53.2175,321.0978,73.4343,286.6762,-4.8422e-05,-1.058e-05,0.0,0 STARLINK-3229,1 49751U 21115AD  24119.82015160 -.00001058  00000-0 -48422-4 0  9996,2 49751  53.2175 321.0978 0001032  73.4343 286.6762 15.08831361132909,6917.907,95.438,540.486,539.058,0.0
49751.0,STARLINK-3229,PAYLOAD,2024-04-29 06:48:42,15.08838578,0.0001048,53.2178,319.0155,77.5811,282.5299,-6.6958e-05,-1.353e-05,0.0,0 STARLINK-3229,1 49751U 21115AD  24120.28382918 -.00001353  00000-0 -66958-4 0  9998,2 49751  53.2178 319.0155 0001048  77.5811 282.5299 15.08838578132972,6917.885,95.438,540.475,539.025,0.0
49751.0,STARLINK-3229,PAYLOAD,2024-04-29 19:31:47,15.08856657,0.0001188,53.218,316.6352,81.7562,278.3565,0.00023467,3.451e-05,0.0,0 STARLINK-3229,1 49751U 21115AD  24120.81373892  .00003451  00000-0  23467-3 0  9994,2 49751  53.2180 316.6352 0001188  81.7562 278.3565 15.08856657134162,6917.829,95.437,540.516,538.873,0.0
49751.0,STARLINK-3229,PAYLOAD,2024-04-29 22:42:32,15.0886338,0.0001367,53.219,316.0367,120.3108,239.802,0.00031492,4.731e-05,0.0,0 STARLINK-3229,1 49751U 21115AD  24120.94621374  .00004731  00000-0  31492-3 0  9998,2 49751  53.2190 316.0367 0001367 120.3108 239.8020 15.08863380133076,6917.809,95.436,540.62,538.728,0.0
49751.0,STARLINK-3229,PAYLOAD,2024-04-30 06:39:28,15.08861065,8.7e-05,53.2178,314.5516,100.4589,259.6502,0.00027122,4.034e-05,0.0,0 STARLINK-3229,1 49751U 21115AD  24121.27741001  .00004034  00000-0  27122-3 0  9996,2 49751  53.2178 314.5516 0000870 100.4589 259.6502 15.08861065133120,6917.816,95.436,540.283,539.079,0.0
49751.0,STARLINK-3229,PAYLOAD,2024-04-30 19:22:33,15.08852478,9.9e-05,53.2186,312.1755,91.7119,268.3986,0.00020655,3.002e-05,0.0,0 STARLINK-3229,1 49751U 21115AD  24121.80733010  .00003002  00000-0  20655-3 0  9994,2 49751  53.2186 312.1755 0000990  91.7119 268.3986 15.08852478134315,6917.842,95.437,540.392,539.022,0.0
49751.0,STARLINK-3229,PAYLOAD,2024-05-01 19:13:21,15.08839272,9.55e-05,53.2192,307.7099,95.3251,264.785,-9.765e-05,-1.841e-05,0.0,0 STARLINK-3229,1 49751U 21115AD  24122.80094335 -.00001841  00000-0 -97650-4 0  9996,2 49751  53.2192 307.7099 0000955  95.3251 264.7850 15.08839272134464,6917.883,95.438,540.408,539.087,0.0
49751.0,STARLINK-3229,PAYLOAD,2024-05-01 22:24:07,15.08842952,9.62e-05,53.2182,307.1215,85.9718,274.1384,-0.00014115,-2.534e-05,0.0,0 STARLINK-3229,1 49751U 21115AD  24122.93342300 -.00002534  00000-0 -14115-3 0  9992,2 49751  53.2182 307.1215 0000962  85.9718 274.1384 15.08842952133373,6917.871,95.437,540.402,539.071,0.0
49751.0,STARLINK-3229,PAYLOAD,2024-05-02 11:07:13,15.08833732,9.7e-05,53.2189,304.7425,103.747,256.363,-9.2245e-05,-1.755e-05,0.0,0 STARLINK-3229,1 49751U 21115AD  24123.46334739 -.00001755  00000-0 -92245-4 0  9993,2 49751  53.2189 304.7425 0000970 103.7470 256.3630 15.08833732133450,6917.9,95.438,540.436,539.094,0.0
49751.0,STARLINK-3229,PAYLOAD,2024-05-03 04:36:27,15.08843699,8.97e-05,53.2183,301.4717,98.8087,261.3007,-1.621e-05,-5.46e-06,0.0,0 STARLINK-3229,1 49751U 21115AD  24124.19198066 -.00000546  00000-0 -16210-4 0  9990,2 49751  53.2183 301.4717 0000897  98.8087 261.3007 15.08843699134670,6917.869,95.437,540.355,539.114,0.0
49751.0,STARLINK-3229,PAYLOAD,2024-05-03 10:58:00,15.08831376,9.9e-05,53.2177,300.2833,107.7747,252.3354,0.00015048,2.107e-05,0.0,0 STARLINK-3229,1 49751U 21115AD  24124.45694756  .00002107  00000-0  15048-3 0  9996,2 49751  53.2177 300.2833 0000990 107.7747 252.3354 15.08831376134715,6917.907,95.438,540.457,539.087,0.0
49751.0,STARLINK-3229,PAYLOAD,2024-05-03 18:54:56,15.08831682,0.0001017,53.2181,298.7969,109.7914,250.3188,0.00013296,1.828e-05,0.0,0 STARLINK-3229,1 49751U 21115AD  24124.78814985  .00001828  00000-0  13296-3 0  9992,2 49751  53.2181 298.7969 0001017 109.7914 250.3188 15.08831682133655,6917.906,95.438,540.474,539.067,0.0
49751.0,STARLINK-3229,PAYLOAD,2024-05-04 17:10:20,15.08831083,9.05e-05,53.218,294.6325,89.588,270.5216,7.8469e-05,9.61e-06,0.0,0 STARLINK-3229,1 49751U 21115AD  24125.71551818  .00000961  00000-0  78469-4 0  9990,2 49751  53.2180 294.6325 0000905  89.5880 270.5216 15.08831083134907,6917.908,95.438,540.399,539.147,0.0
49751.0,STARLINK-3229,PAYLOAD,2024-05-05 10:39:35,15.088276,9.42e-05,53.2186,291.3616,77.5269,282.5828,0.00024942,3.683e-05,0.0,0 STARLINK-3229,1 49751U 21115AD  24126.44415847  .00003683  00000-0  24942-3 0  9992,2 49751  53.2186 291.3616 0000942  77.5269 282.5828 15.08827600133900,6917.918,95.438,540.435,539.132,0.0
49751.0,STARLINK-3229,PAYLOAD,2024-05-05 18:36:30,15.0884442,9.49e-05,53.2193,289.8746,87.2946,272.8154,0.00012504,1.703e-05,0.0,0 STARLINK-3229,1 49751U 21115AD  24126.77535134  .00001703  00000-0  12504-3 0  9992,2 49751  53.2193 289.8746 0000949  87.2946 272.8154 15.08844420135063,6917.867,95.437,540.388,539.075,0.0
49751.0,STARLINK-3229,PAYLOAD,2024-05-06 10:30:21,15.08845347,0.000103,53.2188,286.9015,71.5403,288.5701,0.00016428,2.328e-05,0.0,0 STARLINK-3229,1 49751U 21115AD  24127.43774938  .00002328  00000-0  16428-3 0  9996,2 49751  53.2188 286.9015 0001030  71.5403 288.5701 15.08845347134059,6917.864,95.437,540.442,539.017,0.0
49751.0,STARLINK-3229,PAYLOAD,2024-05-06 16:51:53,15.08849506,7.88e-05,53.2176,285.7108,76.2223,283.8857,0.00020821,3.028e-05,0.0,0 STARLINK-3229,1 49751U 21115AD  24127.70270526  .00003028  00000-0  20821-3 0  9990,2 49751  53.2176 285.7108 0000788  76.2223 283.8857 15.08849506134092,6917.851,95.437,540.261,539.171,0.0
49751.0,STARLINK-3229,PAYLOAD,2024-05-07 03:59:35,15.08850207,6.7e-05,53.2174,283.6296,100.1152,259.9916,0.00012517,1.706e-05,0.0,0 STARLINK-3229,1 49751U 21115AD  24128.16638376  .00001706  00000-0  12517-3 0  9996,2 49751  53.2174 283.6296 0000670 100.1152 259.9916 15.08850207135274,6917.849,95.437,540.178,539.251,0.0
49751.0,STARLINK-3229,PAYLOAD,2024-05-07 13:31:55,15.08842123,0.0001163,53.2201,281.8467,95.6021,264.5104,4.4536e-05,4.21e-06,0.0,0 STARLINK-3229,1 49751U 21115AD  24128.56383292  .00000421  00000-0  44536-4 0  9994,2 49751  53.2201 281.8467 0001163  95.6021 264.5104 15.08842123135332,6917.874,95.437,540.543,538.934,0.0
49751.0,STARLINK-3229,PAYLOAD,2024-05-07 19:53:27,15.08842137,9.33e-05,53.2187,280.6555,93.7808,266.3291,6.9836e-07,-2.77e-06,0.0,0 STARLINK-3229,1 49751U 21115AD  24128.82879240 -.00000277  00000-0  69836-6 0  9998,2 49751  53.2187 280.6555 0000933  93.7808 266.3291 15.08842137134269,6917.874,95.437,540.384,539.093,0.0
49751.0,STARLINK-3229,PAYLOAD,2024-05-08 13:22:42,15.08838664,8.91e-05,53.2176,277.3837,98.1971,261.9122,2.1041e-05,4.7e-07,0.0,0 STARLINK-3229,1 49751U 21115AD  24129.55743544  .00000047  00000-0  21041-4 0  9994,2 49751  53.2176 277.3837 0000891  98.1971 261.9122 15.08838664135485,6917.884,95.438,540.366,539.133,0.0
49751.0,STARLINK-3229,PAYLOAD,2024-05-08 16:33:28,15.0884822,8.44e-05,53.2176,276.7906,82.6422,277.4666,1.7715e-05,-6e-08,0.0,0 STARLINK-3229,1 49751U 21115AD  24129.68991056 -.00000006  00000-0  17715-4 0  9990,2 49751  53.2176 276.7906 0000844  82.6422 277.4666 15.08848220135509,6917.855,95.437,540.304,539.136,0.0
49751.0,STARLINK-3229,PAYLOAD,2024-05-09 13:13:29,15.08843816,8.49e-05,53.2163,272.9246,86.8654,273.2435,0.00029427,4.399e-05,0.0,0 STARLINK-3229,1 49751U 21115AD  24130.55103369  .00004399  00000-0  29427-3 0  9990,2 49751  53.2163 272.9246 0000849  86.8654 273.2435 15.08843816135636,6917.869,95.437,540.321,539.146,0.0
49751.0,STARLINK-3229,PAYLOAD,2024-05-09 14:48:52,15.08845949,8.54e-05,53.2168,272.6276,85.5762,274.5328,0.0003187,4.789e-05,0.0,0 STARLINK-3229,1 49751U 21115AD  24130.61727298  .00004789  00000-0  31870-3 0  9998,2 49751  53.2168 272.6276 0000854  85.5762 274.5328 15.08845949134535,6917.862,95.437,540.318,539.136,0.0
49751.0,STARLINK-3229,PAYLOAD,2024-05-09 16:24:15,15.0885443,7.98e-05,53.2164,272.3292,82.2078,277.9005,0.00033719,5.085e-05,0.0,0 STARLINK-3229,1 49751U 21115AD  24130.68350789  .00005085  00000-0  33719-3 0  9996,2 49751  53.2164 272.3292 0000798  82.2078 277.9005 15.08854430135655,6917.836,95.437,540.253,539.149,0.0
49751.0,STARLINK-3229,PAYLOAD,2024-05-10 13:04:16,15.08839144,8.05e-05,53.217,268.4624,93.9215,266.187,6.869e-05,8.06e-06,0.0,0 STARLINK-3229,1 49751U 21115AD  24131.54463872  .00000806  00000-0  68690-4 0  9993,2 49751  53.2170 268.4624 0000805  93.9215 266.1870 15.08839144135787,6917.883,95.438,540.305,539.191,0.0
49751.0,STARLINK-3229,PAYLOAD,2024-05-10 14:39:39,15.08838391,8.11e-05,53.2171,268.1651,94.4188,265.6897,3.7299e-05,3.06e-06,0.0,0 STARLINK-3229,1 49751U 21115AD  24131.61087769  .00000306  00000-0  37299-4 0  9994,2 49751  53.2171 268.1651 0000811  94.4188 265.6897 15.08838391134681,6917.885,95.438,540.311,539.189,0.0
